CCSDS_OMM_VERS = 2.0
CREATION_DATE  = 
ORIGINATOR     = 

OBJECT_NAME    = SL-3 R/B
OBJECT_ID      = 1982-079B
CENTER_NAME    = EARTH
REF_FRAME      = TEME
TIME_SYSTEM    = UTC
MEAN_ELEMENT_THEORY = SGP/SGP4

EPOCH          = 2026-03-17T05:07:03.378720
MEAN_MOTION    = 15.24912610
ECCENTRICITY   = .00252904
INCLINATION    = 81.1490
RA_OF_ASC_NODE = 184.1946
ARG_OF_PERICENTER = 139.8511
MEAN_ANOMALY   = 220.4597

EPHEMERIS_TYPE = 0
CLASSIFICATION_TYPE = U
NORAD_CAT_ID   = 13403
ELEMENT_SET_NO = 999
REV_AT_EPOCH   = 37884
BSTAR          = .18996321E-3
MEAN_MOTION_DOT = .4796E-4
MEAN_MOTION_DDOT = 0

CCSDS_OMM_VERS = 2.0
CREATION_DATE  = 
ORIGINATOR     = 

OBJECT_NAME    = SL-14 R/B
OBJECT_ID      = 1982-092B
CENTER_NAME    = EARTH
REF_FRAME      = TEME
TIME_SYSTEM    = UTC
MEAN_ELEMENT_THEORY = SGP/SGP4

EPOCH          = 2026-03-17T04:19:57.095616
MEAN_MOTION    = 14.86673476
ECCENTRICITY   = .00187622
INCLINATION    = 82.5680
RA_OF_ASC_NODE = 134.3931
ARG_OF_PERICENTER = 276.8338
MEAN_ANOMALY   = 137.3451

EPHEMERIS_TYPE = 0
CLASSIFICATION_TYPE = U
NORAD_CAT_ID   = 13553
ELEMENT_SET_NO = 999
REV_AT_EPOCH   = 33004
BSTAR          = .44312946E-4
MEAN_MOTION_DOT = .419E-5
MEAN_MOTION_DDOT = 0

CCSDS_OMM_VERS = 2.0
CREATION_DATE  = 
ORIGINATOR     = 

OBJECT_NAME    = SL-3 R/B
OBJECT_ID      = 1983-010B
CENTER_NAME    = EARTH
REF_FRAME      = TEME
TIME_SYSTEM    = UTC
MEAN_ELEMENT_THEORY = SGP/SGP4

EPOCH          = 2026-03-17T04:50:33.315936
MEAN_MOTION    = 15.46629379
ECCENTRICITY   = .00172676
INCLINATION    = 81.1067
RA_OF_ASC_NODE = 353.0368
ARG_OF_PERICENTER = 26.5324
MEAN_ANOMALY   = 333.6801

EPHEMERIS_TYPE = 0
CLASSIFICATION_TYPE = U
NORAD_CAT_ID   = 13819
ELEMENT_SET_NO = 999
REV_AT_EPOCH   = 35910
BSTAR          = .24242377E-3
MEAN_MOTION_DOT = .12185E-3
MEAN_MOTION_DDOT = 0

CCSDS_OMM_VERS = 2.0
CREATION_DATE  = 
ORIGINATOR     = 

OBJECT_NAME    = SL-3 R/B
OBJECT_ID      = 1983-075B
CENTER_NAME    = EARTH
REF_FRAME      = TEME
TIME_SYSTEM    = UTC
MEAN_ELEMENT_THEORY = SGP/SGP4

EPOCH          = 2026-03-17T05:33:41.253408
MEAN_MOTION    = 15.38601451
ECCENTRICITY   = .00208855
INCLINATION    = 97.6136
RA_OF_ASC_NODE = 81.0953
ARG_OF_PERICENTER = 197.5339
MEAN_ANOMALY   = 162.5187

EPHEMERIS_TYPE = 0
CLASSIFICATION_TYPE = U
NORAD_CAT_ID   = 14208
ELEMENT_SET_NO = 999
REV_AT_EPOCH   = 33131
BSTAR          = .22234448E-3
MEAN_MOTION_DOT = .8448E-4
MEAN_MOTION_DDOT = 0

CCSDS_OMM_VERS = 2.0
CREATION_DATE  = 
ORIGINATOR     = 

OBJECT_NAME    = COSMOS 1536
OBJECT_ID      = 1984-013A
CENTER_NAME    = EARTH
REF_FRAME      = TEME
TIME_SYSTEM    = UTC
MEAN_ELEMENT_THEORY = SGP/SGP4

EPOCH          = 2026-03-17T08:05:12.073056
MEAN_MOTION    = 15.23928442
ECCENTRICITY   = .00125142
INCLINATION    = 82.5415
RA_OF_ASC_NODE = 100.2465
ARG_OF_PERICENTER = 252.6996
MEAN_ANOMALY   = 107.2872

EPHEMERIS_TYPE = 0
CLASSIFICATION_TYPE = U
NORAD_CAT_ID   = 14699
ELEMENT_SET_NO = 999
REV_AT_EPOCH   = 27378
BSTAR          = .21661899E-3
MEAN_MOTION_DOT = .5277E-4
MEAN_MOTION_DDOT = 0

CCSDS_OMM_VERS = 2.0
CREATION_DATE  = 
ORIGINATOR     = 

OBJECT_NAME    = SL-14 R/B
OBJECT_ID      = 1984-027B
CENTER_NAME    = EARTH
REF_FRAME      = TEME
TIME_SYSTEM    = UTC
MEAN_ELEMENT_THEORY = SGP/SGP4

EPOCH          = 2026-03-17T04:01:18.387552
MEAN_MOTION    = 14.85984488
ECCENTRICITY   = .00168223
INCLINATION    = 82.5396
RA_OF_ASC_NODE = 237.9979
ARG_OF_PERICENTER = 311.9398
MEAN_ANOMALY   = 48.0384

EPHEMERIS_TYPE = 0
CLASSIFICATION_TYPE = U
NORAD_CAT_ID   = 14820
ELEMENT_SET_NO = 999
REV_AT_EPOCH   = 24874
BSTAR          = .5192073E-4
MEAN_MOTION_DOT = .478E-5
MEAN_MOTION_DDOT = 0

CCSDS_OMM_VERS = 2.0
CREATION_DATE  = 
ORIGINATOR     = 

OBJECT_NAME    = SL-8 R/B
OBJECT_ID      = 1985-006B
CENTER_NAME    = EARTH
REF_FRAME      = TEME
TIME_SYSTEM    = UTC
MEAN_ELEMENT_THEORY = SGP/SGP4

EPOCH          = 2026-03-16T23:23:54.274272
MEAN_MOTION    = 14.37788640
ECCENTRICITY   = .00181371
INCLINATION    = 74.0434
RA_OF_ASC_NODE = 247.7412
ARG_OF_PERICENTER = 163.6073
MEAN_ANOMALY   = 315.0837

EPHEMERIS_TYPE = 0
CLASSIFICATION_TYPE = U
NORAD_CAT_ID   = 15483
ELEMENT_SET_NO = 999
REV_AT_EPOCH   = 15507
BSTAR          = .11215912E-3
MEAN_MOTION_DOT = .312E-5
MEAN_MOTION_DDOT = 0

CCSDS_OMM_VERS = 2.0
CREATION_DATE  = 
ORIGINATOR     = 

OBJECT_NAME    = SL-12 R/B(2)
OBJECT_ID      = 1985-042D
CENTER_NAME    = EARTH
REF_FRAME      = TEME
TIME_SYSTEM    = UTC
MEAN_ELEMENT_THEORY = SGP/SGP4

EPOCH          = 2026-03-17T06:45:48.363264
MEAN_MOTION    = 14.21984561
ECCENTRICITY   = .00330097
INCLINATION    = 71.1065
RA_OF_ASC_NODE = 71.6871
ARG_OF_PERICENTER = 115.6258
MEAN_ANOMALY   = 255.8529

EPHEMERIS_TYPE = 0
CLASSIFICATION_TYPE = U
NORAD_CAT_ID   = 15772
ELEMENT_SET_NO = 999
REV_AT_EPOCH   = 11547
BSTAR          = .38936469E-4
MEAN_MOTION_DOT = .39E-6
MEAN_MOTION_DDOT = 0

CCSDS_OMM_VERS = 2.0
CREATION_DATE  = 
ORIGINATOR     = 

OBJECT_NAME    = SL-14 R/B
OBJECT_ID      = 1985-069B
CENTER_NAME    = EARTH
REF_FRAME      = TEME
TIME_SYSTEM    = UTC
MEAN_ELEMENT_THEORY = SGP/SGP4

EPOCH          = 2026-03-17T05:13:03.805824
MEAN_MOTION    = 14.86441874
ECCENTRICITY   = .00191642
INCLINATION    = 82.5297
RA_OF_ASC_NODE = 17.8559
ARG_OF_PERICENTER = 162.7944
MEAN_ANOMALY   = 197.3926

EPHEMERIS_TYPE = 0
CLASSIFICATION_TYPE = U
NORAD_CAT_ID   = 15945
ELEMENT_SET_NO = 999
REV_AT_EPOCH   = 17395
BSTAR          = .51834143E-4
MEAN_MOTION_DOT = .484E-5
MEAN_MOTION_DDOT = 0

CCSDS_OMM_VERS = 2.0
CREATION_DATE  = 
ORIGINATOR     = 

OBJECT_NAME    = SL-16 R/B
OBJECT_ID      = 1985-097B
CENTER_NAME    = EARTH
REF_FRAME      = TEME
TIME_SYSTEM    = UTC
MEAN_ELEMENT_THEORY = SGP/SGP4

EPOCH          = 2026-03-17T04:31:06.360384
MEAN_MOTION    = 14.16598826
ECCENTRICITY   = .00096814
INCLINATION    = 71.0014
RA_OF_ASC_NODE = 124.7680
ARG_OF_PERICENTER = 250.4589
MEAN_ANOMALY   = 166.3695

EPHEMERIS_TYPE = 0
CLASSIFICATION_TYPE = U
NORAD_CAT_ID   = 16182
ELEMENT_SET_NO = 999
REV_AT_EPOCH   = 8829
BSTAR          = .11178724E-3
MEAN_MOTION_DOT = .175E-5
MEAN_MOTION_DDOT = 0

CCSDS_OMM_VERS = 2.0
CREATION_DATE  = 
ORIGINATOR     = 

OBJECT_NAME    = SL-14 R/B
OBJECT_ID      = 1986-006B
CENTER_NAME    = EARTH
REF_FRAME      = TEME
TIME_SYSTEM    = UTC
MEAN_ELEMENT_THEORY = SGP/SGP4

EPOCH          = 2026-03-17T04:37:14.179008
MEAN_MOTION    = 14.86825982
ECCENTRICITY   = .00751634
INCLINATION    = 82.5237
RA_OF_ASC_NODE = 252.6735
ARG_OF_PERICENTER = 247.4449
MEAN_ANOMALY   = 111.8802

EPHEMERIS_TYPE = 0
CLASSIFICATION_TYPE = U
NORAD_CAT_ID   = 16496
ELEMENT_SET_NO = 999
REV_AT_EPOCH   = 15032
BSTAR          = .70459578E-4
MEAN_MOTION_DOT = .687E-5
MEAN_MOTION_DDOT = 0

CCSDS_OMM_VERS = 2.0
CREATION_DATE  = 
ORIGINATOR     = 

OBJECT_NAME    = COSMOS 1743
OBJECT_ID      = 1986-034A
CENTER_NAME    = EARTH
REF_FRAME      = TEME
TIME_SYSTEM    = UTC
MEAN_ELEMENT_THEORY = SGP/SGP4

EPOCH          = 2026-03-17T05:12:08.767296
MEAN_MOTION    = 15.59132535
ECCENTRICITY   = .00019886
INCLINATION    = 82.5282
RA_OF_ASC_NODE = 65.9259
ARG_OF_PERICENTER = 223.5450
MEAN_ANOMALY   = 136.5650

EPHEMERIS_TYPE = 0
CLASSIFICATION_TYPE = U
NORAD_CAT_ID   = 16719
ELEMENT_SET_NO = 999
REV_AT_EPOCH   = 18142
BSTAR          = .39715911E-3
MEAN_MOTION_DOT = .31137E-3
MEAN_MOTION_DDOT = 0

